{"type":"FeatureCollection","features":[{"type":"Feature","properties":{"name":"United Kingdom","ISO_A2":"GB"},"geometry":{"type":"MultiPolygon","coordinates":[[[[-7.2471,55.069322],[-7.009918,55.10224],[-6.554514,55.218573],[-6.179555,55.219713],[-6.03539,55.063625],[-5.886342,54.940823],[-5.775258,54.81151],[-5.706899,54.742987],[-5.907379,54.605618],[-5.694692,54.668687],[-5.478912,54.569485],[-5.457387,54.408677],[-5.55899,54.382636],[-5.701975,54.577704],[-5.641916,54.512641],[-5.653554,54.388983],[-5.617177,54.254788],[-5.842275,54.235053],[-6.027252,54.040229],[-6.242502,54.099758],[-6.367643,54.083418],[-6.564013,54.04895],[-6.655791,54.103314],[-6.73284,54.183567],[-6.856657,54.292811],[-7.078504,54.394717],[-7.192399,54.307384],[-7.229502,54.207545],[-7.280042,54.126155],[-7.316489,54.11428],[-7.480753,54.127653],[-7.86967,54.226872],[-8.079941,54.380196],[-8.05586,54.497553],[-7.736758,54.619251],[-7.906619,54.661316],[-7.667512,54.738779],[-7.470831,54.845284],[-7.409078,54.992045],[-7.2471,55.069322]]],[[[-2.665354,51.617255],[-2.984039,51.558539],[-3.166656,51.456],[-3.604726,51.445705],[-3.751902,51.533067],[-3.976633,51.611884],[-4.031972,51.563137],[-4.14273,51.556952],[-4.297353,51.569241],[-4.227854,51.628119],[-4.106842,51.664252],[-4.328725,51.732978],[-4.392974,51.763739],[-4.603424,51.739244],[-4.741851,51.656073],[-4.956451,51.602769],[-5.028676,51.692939],[-4.862538,51.782375],[-4.89566,51.728176],[-5.249501,51.73371],[-5.117502,51.843695],[-5.297353,51.877672],[-5.16039,51.949449],[-4.961741,52.007514],[-4.796986,52.056464],[-4.490956,52.150377],[-4.109609,52.365302],[-4.016184,52.521959],[-4.084828,52.672675],[-4.125152,52.778306],[-4.064036,52.919176],[-4.317291,52.899359],[-4.501943,52.794989],[-4.64859,52.799628],[-4.580963,52.933498],[-4.327626,53.114691],[-4.151519,53.228095],[-3.84142,53.30744],[-3.602203,53.288886],[-3.084543,53.238593],[-3.094228,53.417385],[-2.837554,53.302802],[-2.717437,53.342719],[-2.956939,53.370551],[-2.984853,53.73607],[-2.885365,53.950507],[-2.916086,54.026557],[-2.850942,54.184638],[-2.912668,54.176988],[-3.044667,54.208319],[-3.180531,54.092841],[-3.206776,54.20893],[-3.364491,54.242499],[-3.497711,54.405829],[-3.516021,54.712877],[-3.34496,54.902533],[-3.193674,54.948635],[-3.02184,54.968085],[-3.510894,54.985989],[-3.691762,54.883205],[-3.815053,54.877143],[-3.833608,54.820054],[-4.049713,54.789984],[-4.209137,54.826239],[-4.402903,54.907294],[-4.344472,54.794501],[-4.405263,54.682074],[-4.821034,54.866645],[-4.940256,54.767035],[-4.923492,54.649726],[-4.988189,54.735297],[-5.156728,55.016547],[-5.065256,54.940334],[-5.03303,54.995266],[-4.882395,55.218573],[-4.799224,55.354722],[-4.687164,55.544135],[-4.90099,55.692328],[-4.872141,55.937201],[-4.630035,55.946275],[-4.837554,56.050605],[-4.755442,56.188381],[-4.907094,56.177069],[-4.906402,55.985745],[-4.947255,55.920844],[-5.110829,55.988959],[-5.190826,55.961737],[-5.307118,55.860419],[-5.338287,55.996568],[-4.9381,56.270982],[-5.338043,56.054104],[-5.437123,56.030015],[-5.412506,55.899604],[-5.317779,55.783026],[-5.490102,55.644599],[-5.503529,55.526516],[-5.572133,55.422309],[-5.639963,55.3039],[-5.791412,55.398627],[-5.694488,55.605536],[-5.4735,55.81566],[-5.674062,55.845771],[-5.687978,55.893378],[-5.631703,56.005927],[-5.581532,56.088284],[-5.534739,56.098538],[-5.582672,56.15058],[-5.499257,56.267646],[-5.543691,56.352851],[-5.478017,56.412909],[-5.099599,56.543647],[-5.435943,56.491156],[-5.242055,56.565131],[-5.410878,56.552069],[-5.317779,56.653876],[-4.995595,56.715969],[-5.20226,56.76911],[-5.319163,56.697496],[-5.493316,56.606391],[-5.755198,56.554023],[-5.899037,56.650824],[-5.564809,56.687649],[-6.024892,56.685696],[-6.234486,56.728583],[-5.928538,56.769965],[-5.839182,56.777411],[-5.673573,56.876532],[-5.852203,56.900336],[-5.719879,57.017564],[-5.584625,56.997138],[-5.752553,57.040595],[-5.620839,57.124091],[-5.503896,57.112698],[-5.620107,57.252143],[-5.492502,57.270901],[-5.57844,57.277655],[-5.654368,57.353949],[-5.586659,57.365058],[-5.784576,57.348578],[-5.811187,57.442206],[-5.847076,57.558905],[-5.680898,57.524115],[-5.588368,57.561021],[-5.805898,57.642646],[-5.68517,57.711412],[-5.807362,57.84394],[-5.650543,57.781806],[-5.585276,57.831448],[-5.58731,57.915107],[-5.355621,57.891262],[-5.397328,57.9289],[-5.243642,57.912909],[-5.097157,57.870917],[-5.333892,58.008531],[-5.41393,58.052314],[-5.283559,58.113471],[-5.297353,58.168402],[-5.375885,58.264228],[-5.129384,58.271389],[-4.926747,58.264594],[-5.137441,58.309272],[-5.146718,58.406643],[-5.066151,58.417141],[-5.025543,58.447699],[-5.004954,58.617743],[-4.818105,58.524644],[-4.683258,58.56151],[-4.682973,58.484565],[-4.426503,58.546373],[-4.432729,58.487616],[-4.234731,58.524644],[-4.111195,58.565619],[-3.981435,58.573065],[-3.504018,58.603339],[-3.35436,58.670152],[-3.044423,58.60163],[-3.073964,58.481676],[-3.349843,58.276109],[-3.851715,58.003892],[-4.030141,57.953192],[-4.013824,57.87934],[-4.320953,57.871039],[-4.133453,57.830146],[-3.798451,57.866523],[-4.016184,57.723334],[-4.338206,57.645087],[-4.283111,57.641425],[-4.004506,57.675971],[-4.17809,57.549547],[-4.194814,57.491604],[-4.046457,57.567857],[-3.619618,57.636217],[-3.482818,57.714016],[-2.916086,57.702826],[-2.526112,57.668606],[-2.360504,57.682359],[-2.124338,57.702826],[-1.829457,57.613471],[-1.771718,57.476264],[-2.071401,57.135565],[-2.191314,56.908922],[-2.435943,56.740383],[-2.530019,56.580756],[-3.055653,56.452135],[-3.149566,56.375556],[-2.821604,56.376166],[-2.621205,56.304429],[-2.940053,56.209418],[-3.248443,56.055976],[-3.803131,56.107123],[-3.679555,56.025458],[-3.121816,55.969306],[-2.866322,56.02676],[-2.544057,56.002672],[-2.132558,55.90644],[-1.82608,55.643622],[-1.767974,55.612982],[-1.622222,55.534084],[-1.589345,55.376532],[-1.556467,55.255032],[-1.495961,55.134589],[-1.419504,55.011705],[-1.355824,54.904283],[-1.178822,54.66474],[-1.176991,54.626776],[-1.042063,54.617092],[-0.447743,54.373196],[-0.362782,54.242499],[-0.194692,54.062323],[0.135997,53.610663],[-0.225331,53.719916],[-0.658355,53.727973],[-0.529937,53.67768],[0.000092,53.535346],[0.211925,53.412665],[0.282481,53.074856],[0.105642,52.88935],[0.384532,52.775214],[0.671886,52.974433],[0.991547,52.967475],[1.740733,52.603909],[1.641124,52.281806],[1.472016,52.05622],[1.157888,52.02851],[1.20574,51.953437],[1.227875,51.867377],[1.037283,51.782172],[0.873709,51.747301],[0.749278,51.708482],[0.940196,51.698432],[0.92449,51.588324],[0.623383,51.52204],[0.428477,51.467108],[0.721934,51.456285],[0.585948,51.391059],[1.100922,51.373236],[1.404307,51.261379],[1.192068,51.082587],[0.802257,50.939195],[0.233897,50.747016],[-0.208892,50.830105],[-0.770985,50.736884],[-0.909535,50.825995],[-1.056223,50.783026],[-1.121205,50.799384],[-1.318593,50.85692],[-1.339833,50.795152],[-1.559397,50.719224],[-1.857411,50.726955],[-2.021962,50.72012],[-2.002512,50.681301],[-2.082183,50.597846],[-2.43928,50.541815],[-3.059722,50.713324],[-3.271392,50.664496],[-3.458608,50.677558],[-3.505971,50.520819],[-3.49828,50.383694],[-3.637359,50.295396],[-3.884185,50.280463],[-4.067942,50.312812],[-4.191477,50.417629],[-4.234731,50.432115],[-4.220123,50.365302],[-4.235097,50.349555],[-4.694325,50.343451],[-4.783355,50.277899],[-4.960683,50.190497],[-5.051869,50.144599],[-5.086903,50.089057],[-5.146474,50.010565],[-5.259755,50.037665],[-5.534657,50.082343],[-5.697092,50.100531],[-5.510976,50.219468],[-5.163564,50.347235],[-5.029775,50.486762],[-4.933583,50.52025],[-4.915191,50.572496],[-4.728139,50.672309],[-4.530426,50.994696],[-4.22468,51.067084],[-4.209828,51.172838],[-3.63976,51.226386],[-3.035553,51.199286],[-2.992177,51.321926],[-2.798573,51.482611],[-2.568959,51.644965],[-2.4204,51.753119],[-2.665354,51.617255]]],[[[-1.082753,50.713324],[-1.164133,50.619371],[-1.545318,50.686103],[-1.119537,50.734198],[-1.082753,50.713324]]],[[[-0.959869,50.808254],[-0.959869,50.802069],[-0.954579,50.798814],[-0.945627,50.791815],[-0.938832,50.788398],[-0.938832,50.780951],[-1.020741,50.788398],[-1.020741,50.795152],[-0.998687,50.801011],[-0.972564,50.829779],[-0.959869,50.829332],[-0.950307,50.823798],[-0.947825,50.817816],[-0.951405,50.812445],[-0.959869,50.808254]]],[[[0.911469,51.412177],[0.932465,51.397691],[0.942149,51.383002],[0.936371,51.371039],[0.911469,51.364407],[0.79477,51.370551],[0.775076,51.375312],[0.757579,51.38642],[0.7435,51.400092],[0.733897,51.412177],[0.746837,51.439643],[0.753917,51.445705],[0.766938,51.447943],[0.890798,51.421047],[0.900564,51.417548],[0.911469,51.412177]]],[[[-4.57726,53.27204],[-4.572743,53.266506],[-4.563954,53.260443],[-4.558461,53.252753],[-4.563629,53.241929],[-4.571889,53.239488],[-4.581899,53.242011],[-4.602406,53.253079],[-4.622792,53.275946],[-4.632558,53.282945],[-4.641347,53.284369],[-4.6704,53.282945],[-4.676666,53.285102],[-4.693959,53.302802],[-4.693959,53.309638],[-4.667307,53.32392],[-4.65567,53.31977],[-4.644195,53.319525],[-4.626291,53.320868],[-4.618886,53.317084],[-4.603831,53.308173],[-4.590443,53.297553],[-4.580922,53.285468],[-4.57726,53.27204]]],[[[-4.098134,53.309638],[-4.220367,53.201483],[-4.39269,53.136054],[-4.410878,53.182196],[-4.496327,53.203803],[-4.553456,53.40058],[-4.240061,53.358344],[-4.177805,53.297553],[-4.098134,53.309638]]],[[[-6.236399,55.311347],[-6.184804,55.30683],[-6.174306,55.3039],[-6.171864,55.293199],[-6.17809,55.280585],[-6.187571,55.269355],[-6.194814,55.262926],[-6.193267,55.270982],[-6.19286,55.275784],[-6.191762,55.279364],[-6.187978,55.284003],[-6.21109,55.295315],[-6.235829,55.296698],[-6.26061,55.295071],[-6.283559,55.297065],[-6.272532,55.303046],[-6.261464,55.307522],[-6.249623,55.310289],[-6.236399,55.311347]]],[[[-5.07079,55.509345],[-5.345693,55.489447],[-5.392893,55.646552],[-5.159983,55.676215],[-5.07079,55.509345]]],[[[-5.029775,55.749498],[-5.174224,55.855373],[-5.068023,55.852118],[-5.029775,55.749498]]],[[[-6.030385,55.729071],[-6.105458,55.640204],[-6.319244,55.628241],[-6.328725,55.783149],[-6.498606,55.721137],[-6.354482,55.877427],[-6.296986,55.867174],[-6.115956,55.886786],[-6.04662,55.733547],[-6.030385,55.729071]]],[[[-6.205719,56.102729],[-6.198232,56.106269],[-6.182607,56.102607],[-6.174306,56.106431],[-6.177398,56.110256],[-6.179026,56.112942],[-6.181793,56.119452],[-6.164947,56.120795],[-6.149403,56.124945],[-6.13801,56.124701],[-6.133372,56.112616],[-6.165639,56.081488],[-6.177154,56.061469],[-6.174306,56.043769],[-6.194325,56.035305],[-6.221669,56.030829],[-6.249176,56.031317],[-6.269887,56.037543],[-6.254303,56.044623],[-6.246816,56.056138],[-6.241689,56.069485],[-6.232655,56.08161],[-6.211741,56.096991],[-6.205719,56.102729]]],[[[-5.797597,56.112616],[-5.886342,55.886705],[-6.08495,55.900336],[-5.983266,56.008857],[-5.797597,56.112616]]],[[[-5.688303,56.202053],[-5.680898,56.194566],[-5.673655,56.178941],[-5.694203,56.168606],[-5.725209,56.162828],[-5.749135,56.161078],[-5.738352,56.177476],[-5.722239,56.187079],[-5.688303,56.202053]]],[[[-5.633127,56.263495],[-5.627838,56.259996],[-5.622955,56.257636],[-5.618031,56.258124],[-5.61262,56.263495],[-5.610585,56.249416],[-5.618153,56.235053],[-5.628163,56.220526],[-5.637441,56.189276],[-5.647572,56.19538],[-5.666656,56.22248],[-5.656402,56.232001],[-5.645334,56.255927],[-5.633127,56.263495]]],[[[-5.633127,56.318752],[-5.620758,56.324205],[-5.59789,56.321845],[-5.584625,56.325588],[-5.590443,56.313625],[-5.599965,56.305487],[-5.605336,56.296942],[-5.598988,56.283922],[-5.621693,56.276068],[-5.640289,56.282782],[-5.646718,56.298774],[-5.633127,56.318752]]],[[[-5.557973,56.414293],[-5.526519,56.41356],[-5.512359,56.415432],[-5.502756,56.421129],[-5.518056,56.403876],[-5.536204,56.392239],[-5.557973,56.386461],[-5.584625,56.38703],[-5.579823,56.39643],[-5.573964,56.402899],[-5.557973,56.414293]]],[[[-6.160024,56.46955],[-6.212473,56.467841],[-6.237457,56.470038],[-6.263661,56.483222],[-6.253245,56.492865],[-6.242055,56.499579],[-6.229604,56.503323],[-6.215321,56.503648],[-6.200754,56.49494],[-6.170562,56.481147],[-6.160024,56.46955]]],[[[-6.818593,56.537828],[-6.767201,56.54857],[-6.741851,56.547838],[-6.729237,56.530341],[-6.743316,56.517808],[-6.803822,56.513617],[-6.805572,56.496894],[-6.82551,56.487291],[-6.847727,56.484809],[-6.869293,56.479641],[-6.887522,56.462104],[-6.881581,56.444281],[-6.902455,56.443752],[-6.965199,56.459866],[-6.973988,56.471503],[-6.979726,56.487128],[-6.989898,56.503648],[-6.968129,56.510484],[-6.900502,56.516669],[-6.878082,56.521308],[-6.841135,56.534735],[-6.818593,56.537828]]],[[[-5.688303,56.434801],[-5.739084,56.40119],[-5.880116,56.325588],[-5.957875,56.32807],[-6.250356,56.273749],[-6.290395,56.345404],[-6.170888,56.335761],[-6.198842,56.390326],[-6.009836,56.46955],[-6.162099,56.509223],[-6.272125,56.612209],[-6.059926,56.635688],[-5.836903,56.514635],[-5.696767,56.475653],[-5.688303,56.434801]]],[[[-6.459218,56.678127],[-6.668935,56.577786],[-6.505849,56.68537],[-6.459218,56.678127]]],[[[-7.393951,57.010199],[-7.445302,56.947089],[-7.499908,57.020087],[-7.434967,57.02383],[-7.393951,57.010199]]],[[[-6.325185,57.05858],[-6.272939,57.040229],[-6.250966,57.026557],[-6.269887,57.017564],[-6.269887,57.010199],[-6.243235,57.010199],[-6.256744,56.973782],[-6.276031,56.953111],[-6.303619,56.943996],[-6.341868,56.941881],[-6.359771,56.947333],[-6.376129,56.971177],[-6.390289,56.97663],[-6.405385,56.980536],[-6.436757,56.998481],[-6.455474,57.003974],[-6.395253,57.041938],[-6.364247,57.05565],[-6.325185,57.05858]]],[[[-6.606353,57.051744],[-6.59081,57.058987],[-6.556304,57.070136],[-6.537465,57.072821],[-6.525868,57.067125],[-6.501536,57.063666],[-6.489654,57.05858],[-6.51594,57.050686],[-6.548248,57.047593],[-6.580434,57.048407],[-6.606353,57.051744]]],[[[-5.958608,57.284491],[-5.984853,57.290432],[-6.007802,57.303616],[-6.013905,57.31745],[-5.98998,57.325507],[-5.955719,57.321601],[-5.929351,57.307196],[-5.925445,57.291693],[-5.958608,57.284491]]],[[[-7.243764,57.325507],[-7.276112,57.231757],[-7.346181,57.147935],[-7.381988,57.118354],[-7.417307,57.28144],[-7.279124,57.36994],[-7.371083,57.3876],[-7.305287,57.332343],[-7.243764,57.325507]]],[[[-7.26358,57.4831],[-7.222035,57.460924],[-7.407623,57.445624],[-7.26358,57.4831]]],[[[-6.064443,57.346584],[-6.015859,57.496772],[-6.008901,57.380194],[-6.064443,57.346584]]],[[[-5.968251,57.51789],[-5.983713,57.522366],[-5.98998,57.532945],[-5.987294,57.546291],[-5.975697,57.558824],[-5.980092,57.561469],[-5.980377,57.562445],[-5.982533,57.566311],[-5.975697,57.572333],[-5.968658,57.576565],[-5.961903,57.577297],[-5.95519,57.572496],[-5.968007,57.533922],[-5.968251,57.51789]]],[[[-7.129384,57.652899],[-7.148427,57.62934],[-7.154286,57.587348],[-7.269887,57.570543],[-7.219838,57.51081],[-7.318267,57.552069],[-7.522206,57.608385],[-7.312082,57.688544],[-7.181711,57.688544],[-7.129384,57.652899]]],[[[-6.564117,57.346584],[-6.747141,57.487942],[-6.608266,57.464586],[-6.593617,57.510972],[-6.605621,57.599555],[-6.45165,57.513332],[-6.325185,57.4831],[-6.395863,57.613471],[-6.325185,57.69599],[-6.158355,57.597846],[-6.15925,57.407375],[-6.140289,57.312445],[-5.976674,57.270331],[-5.795806,57.271796],[-5.74234,57.168443],[-6.006744,57.028388],[-5.961822,57.142157],[-6.019276,57.217597],[-6.073842,57.131781],[-6.164459,57.201361],[-6.329986,57.195014],[-6.462961,57.290432],[-6.310902,57.298163],[-6.475942,57.367092],[-6.517649,57.398871],[-6.564117,57.346584]]],[[[-7.222646,57.709662],[-7.180165,57.734687],[-7.161204,57.737006],[-7.152008,57.726304],[-7.170033,57.715155],[-7.198964,57.707953],[-7.222646,57.709662]]],[[[-8.621002,57.833197],[-8.605295,57.826402],[-8.569081,57.823676],[-8.552235,57.818915],[-8.568959,57.807563],[-8.590891,57.804755],[-8.610707,57.81273],[-8.621002,57.833197]]],[[[-7.044586,57.902086],[-7.048085,57.890815],[-7.055165,57.884182],[-7.0655,57.881049],[-7.079335,57.880316],[-7.077056,57.888617],[-7.076772,57.890692],[-7.07787,57.891181],[-7.079335,57.89468],[-7.03775,57.916327],[-7.015533,57.921942],[-6.997385,57.915107],[-6.99706,57.893541],[-7.009185,57.889594],[-7.044586,57.902086]]],[[[-6.87328,58.216783],[-6.862864,58.216457],[-6.859609,58.216783],[-6.859609,58.223049],[-6.872222,58.226793],[-6.882314,58.236274],[-6.88622,58.247626],[-6.880035,58.257758],[-6.861155,58.253363],[-6.828928,58.233791],[-6.818593,58.23725],[-6.809641,58.232245],[-6.801991,58.226142],[-6.795766,58.218817],[-6.791249,58.209947],[-6.87328,58.209947],[-6.87328,58.216783]]],[[[-6.955149,57.743842],[-7.088612,57.833401],[-6.832265,57.902086],[-6.952056,57.956732],[-7.054921,58.019761],[-7.024037,58.052314],[-7.113189,58.1164],[-7.112782,58.175849],[-6.969472,58.226752],[-6.86144,58.115871],[-6.798451,58.202379],[-6.783844,58.230414],[-6.801178,58.283352],[-6.548492,58.372789],[-6.184926,58.414781],[-6.246409,58.297553],[-6.347727,58.221137],[-6.163319,58.233588],[-6.293568,58.199368],[-6.441233,58.127387],[-6.420644,58.105658],[-6.389475,58.041205],[-6.542226,58.005683],[-6.551096,57.943061],[-6.629872,57.956732],[-6.709381,58.003892],[-6.750885,57.992987],[-6.680328,57.912055],[-6.772857,57.871243],[-6.852691,57.833197],[-6.955149,57.743842]]],[[[-2.952952,58.839993],[-2.917836,58.738349],[-3.035553,58.820054],[-2.952952,58.839993]]],[[[-3.248402,58.792182],[-3.358266,58.833157],[-3.433339,58.884955],[-3.207387,58.839993],[-3.248402,58.792182]]],[[[-2.727651,58.970893],[-2.915028,58.899115],[-3.084543,58.94302],[-3.207387,59.011298],[-3.267486,59.014716],[-3.366689,59.016099],[-3.084543,59.127997],[-2.999013,59.06151],[-3.029205,59.010321],[-2.885365,58.977118],[-2.81192,58.929145],[-2.727651,58.970893]]],[[[-2.541982,59.120551],[-2.670725,59.081529],[-2.611562,59.155219],[-2.535268,59.127997],[-2.541982,59.120551]]],[[[-3.004791,59.127997],[-3.035553,59.183173],[-2.97525,59.133775],[-3.004791,59.127997]]],[[[-2.830068,59.196845],[-2.761098,59.244615],[-2.751088,59.156073],[-2.830068,59.196845]]],[[[-2.446401,59.293036],[-2.51476,59.230414],[-2.67927,59.209906],[-2.61262,59.261542],[-2.576812,59.271308],[-2.446401,59.293036]]],[[[-3.049184,59.31977],[-2.947662,59.348538],[-2.870961,59.271308],[-2.870961,59.258287],[-3.015126,59.274888],[-3.049184,59.31977]]],[[[-1.651275,59.528957],[-1.643666,59.54564],[-1.625234,59.555813],[-1.602854,59.560248],[-1.583119,59.559963],[-1.582387,59.555121],[-1.583852,59.553697],[-1.586415,59.553616],[-1.589345,59.552476],[-1.603668,59.55093],[-1.608144,59.547349],[-1.610422,59.539496],[-1.59675,59.539496],[-1.59675,59.53205],[-1.613393,59.526597],[-1.631256,59.516995],[-1.645497,59.514106],[-1.651275,59.528957]]],[[[-0.784576,60.615139],[-0.859609,60.571031],[-0.793528,60.6105],[-0.784576,60.615139]]],[[[-1.097035,60.41649],[-1.094472,60.391506],[-1.075307,60.32095],[-1.089752,60.272528],[-1.194936,60.245347],[-1.192616,60.176337],[-1.170969,60.136217],[-1.19286,60.06981],[-1.242991,59.976874],[-1.265004,59.858832],[-1.375966,59.908637],[-1.328725,59.99551],[-1.285268,60.164618],[-1.26773,60.245185],[-1.349721,60.211086],[-1.445953,60.155829],[-1.479237,60.222235],[-1.630238,60.220893],[-1.619374,60.314358],[-1.4676,60.308539],[-1.396352,60.321845],[-1.260365,60.355048],[-1.384429,60.423326],[-1.493072,60.478461],[-1.586171,60.512112],[-1.455068,60.508857],[-1.452789,60.567328],[-1.315541,60.594062],[-1.308705,60.587836],[-1.315541,60.518948],[-1.351796,60.418362],[-1.284739,60.478705],[-1.169911,60.463121],[-1.220774,60.409125],[-1.132151,60.398017],[-1.097035,60.41649]]],[[[-0.987172,60.697699],[-1.027089,60.610093],[-1.010732,60.565497],[-1.100697,60.515041],[-1.141021,60.631171],[-1.118031,60.707221],[-1.000885,60.703925],[-0.987172,60.697699]]],[[[-0.904693,60.684027],[-0.935699,60.756008],[-0.856191,60.823961],[-0.809722,60.841702],[-0.808461,60.778632],[-0.821889,60.685004],[-0.904693,60.684027]]],[[[-6.298818,49.935492],[-6.292226,49.932074],[-6.284169,49.922756],[-6.287506,49.914008],[-6.297271,49.909613],[-6.309153,49.913642],[-6.307444,49.927436],[-6.298818,49.935492]]],[[[-6.333648,49.959703],[-6.328033,49.95661],[-6.326487,49.949205],[-6.332509,49.941718],[-6.341217,49.94477],[-6.348053,49.956204],[-6.348948,49.964342],[-6.341786,49.963609],[-6.336822,49.960924],[-6.333648,49.959703]]],[[[-4.665435,51.18358],[-4.663971,51.177069],[-4.663482,51.164862],[-4.670481,51.160102],[-4.678538,51.16706],[-4.679799,51.180569],[-4.676422,51.193101],[-4.671213,51.195054],[-4.666982,51.18769],[-4.665435,51.18358]]],[[[-13.690419,57.596259],[-13.691314,57.596503],[-13.691314,57.597154],[-13.690419,57.597805],[-13.688588,57.597805],[-13.687652,57.597154],[-13.687652,57.596869],[-13.688588,57.596259],[-13.690419,57.596259]]],[[[-1.315094,60.093736],[-1.335805,60.070054],[-1.327789,60.111396],[-1.315094,60.093736]]],[[[-2.053212,60.155504],[-2.048899,60.147121],[-2.048085,60.129218],[-2.062978,60.117987],[-2.086903,60.123277],[-2.105377,60.132066],[-2.112294,60.138007],[-2.110341,60.145331],[-2.103424,60.150051],[-2.08788,60.155463],[-2.064687,60.157294],[-2.053212,60.155504]]],[[[-1.062856,60.164049],[-1.050526,60.169623],[-1.050445,60.162787],[-1.052724,60.148424],[-1.059478,60.137641],[-1.066762,60.129218],[-1.073801,60.107733],[-1.083892,60.10517],[-1.112945,60.116278],[-1.122222,60.123114],[-1.119252,60.155585],[-1.13565,60.167955],[-1.134918,60.178697],[-1.115793,60.180162],[-1.097524,60.175727],[-1.089589,60.178168],[-1.086415,60.186469],[-1.079457,60.1883],[-1.074941,60.182807],[-1.07315,60.173],[-1.069936,60.164211],[-1.062856,60.164049]]],[[[-0.918772,60.386176],[-0.912668,60.386786],[-0.911204,60.38231],[-0.917714,60.376654],[-0.931386,60.368476],[-0.948598,60.355862],[-0.975982,60.340318],[-1.015207,60.334133],[-1.034088,60.340155],[-1.02892,60.345649],[-1.02359,60.349433],[-1.021555,60.354478],[-1.016428,60.362006],[-1.006418,60.368964],[-0.995229,60.371649],[-0.983632,60.372301],[-0.974477,60.375922],[-0.9676,60.381049],[-0.932281,60.382758],[-0.921783,60.384589],[-0.918772,60.386176]]]]}}]}